[{"OBJECT_NAME":"STARLINK-1683","OBJECT_ID":"2020-070AY","EPOCH":"2026-03-10T00:00:02.999808","MEAN_MOTION":15.80836783,"ECCENTRICITY":0.00071266,"INCLINATION":53.0104,"RA_OF_ASC_NODE":69.9116,"ARG_OF_PERICENTER":22.2576,"MEAN_ANOMALY":140.1673,"EPHEMERIS_TYPE":0,"CLASSIFICATION_TYPE":"U","NORAD_CAT_ID":46578,"ELEMENT_SET_NO":999,"REV_AT_EPOCH":592,"BSTAR":0.0011834415,"MEAN_MOTION_DOT":0.00239404,"MEAN_MOTION_DDOT":0},{"OBJECT_NAME":"STARLINK-36644","OBJECT_ID":"2026-033A","EPOCH":"2026-03-09T22:43:27.763968","MEAN_MOTION":15.82118302,"ECCENTRICITY":0.00015953,"INCLINATION":42.9988,"RA_OF_ASC_NODE":269.9496,"ARG_OF_PERICENTER":270.7764,"MEAN_ANOMALY":89.2925,"EPHEMERIS_TYPE":0,"CLASSIFICATION_TYPE":"U","NORAD_CAT_ID":67821,"ELEMENT_SET_NO":999,"REV_AT_EPOCH":466,"BSTAR":0.001506279,"MEAN_MOTION_DOT":0.00330628,"MEAN_MOTION_DDOT":0}]
